*******************************************************************************
Ephemeris / WWW_USER Mon Jul 15 19:03:45 2024 Pasadena, USA      / Horizons    
*******************************************************************************
Target body name: (2018 RC)                       {source: JPL#21}
Center body name: Earth (399)                     {source: DE441}
Center-site name: Gemini South Obs., Cerro Pachon
*******************************************************************************
Start time      : A.D. 2018-Oct-16 23:02:00.0000 UT      
Stop  time      : A.D. 2018-Oct-17 09:54:00.0000 UT      
Step-size       : 1 minutes
*******************************************************************************
Target pole/equ : undefined
Target radii    : undefined                                                    
Center geodetic : 289.2634, -30.2406227, 2.71233  {E-lon(deg),Lat(deg),Alt(km)}
Center cylindric: 289.2634,5517.21435,-3194.81213 {E-lon(deg),Dxy(km),Dz(km)}
Center pole/equ : ITRF93                          {East-longitude positive}
Center radii    : 6378.137, 6378.137, 6356.752 km {Equator_a, b, pole_c}       
Target primary  : Sun
Vis. interferer : MOON (R_eq= 1737.400) km        {source: DE441}
Rel. light bend : Sun                             {source: DE441}
Rel. lght bnd GM: 1.3271E+11 km^3/s^2                                          
Small-body perts: Yes                             {source: SB441-N16}
Atmos refraction: NO (AIRLESS)
RA format       : HMS
Time format     : CAL 
Calendar mode   : Mixed Julian/Gregorian
RTS-only print  : NO       
EOP file        : eop.240715.p241008                                           
EOP coverage    : DATA-BASED 1962-JAN-20 TO 2024-JUL-15. PREDICTS-> 2024-OCT-07
Units conversion: 1 au= 149597870.700 km, c= 299792.458 km/s, 1 day= 86400.0 s 
Table cut-offs 1: Elevation (-90.0deg=NO ),Airmass (>38.000=NO), Daylight (YES)
Table cut-offs 2: Solar elongation (  0.0,180.0=NO ),Local Hour Angle( 0.0=NO )
Table cut-offs 3: RA/DEC angular rate (     0.0=NO )                           
*******************************************************************************
Initial IAU76/J2000 heliocentric ecliptic osculating elements (au, days, deg.):
  EPOCH=  2458369.5 ! 2018-Sep-08.00 (TDB)         Residual RMS= .84866        
   EC= .2426621660028976   QR= .647471518312811    TP= 2458473.8617576878      
   OM= 346.8893436915528   W=  145.8737085184167   IN= 1.612045057594462       
  Equivalent ICRF heliocentric cartesian coordinates (au, au/d):
   X= 9.781363708094483E-01  Y=-2.377942828764822E-01  Z=-1.040448782093900E-01
  VX= 1.501011538102481E-03 VY= 1.393070215815854E-02 VZ= 6.509326736836346E-03
Asteroid physical parameters (km, seconds, rotational period in hours):        
   GM= n.a.                RAD= n.a.               ROTPER= .16548              
   H= 24.93                G= .150                 B-V= n.a.                   
                           ALBEDO= n.a.            STYP= n.a.                  
*******************************************************************************
 Date__(UT)__HR:MN     R.A._________(ICRF)_________DEC
******************************************************
$$SOE
 2018-Oct-17 01:05  m  13 07 27.530191 +01 01 41.54909
 2018-Oct-17 01:06  m  13 07 27.532431 +01 01 41.35512
 2018-Oct-17 01:07  m  13 07 27.534727 +01 01 41.16117
 2018-Oct-17 01:08  m  13 07 27.537081 +01 01 40.96721
 2018-Oct-17 01:09  m  13 07 27.539491 +01 01 40.77326
 2018-Oct-17 01:10  m  13 07 27.541957 +01 01 40.57931
 2018-Oct-17 01:11  m  13 07 27.544479 +01 01 40.38536
 2018-Oct-17 01:12  m  13 07 27.547057 +01 01 40.19142
 2018-Oct-17 01:13  m  13 07 27.549691 +01 01 39.99748
 2018-Oct-17 01:14  m  13 07 27.552380 +01 01 39.80355
 2018-Oct-17 01:15  m  13 07 27.555124 +01 01 39.60962
 2018-Oct-17 01:16  m  13 07 27.557923 +01 01 39.41569
 2018-Oct-17 01:17  m  13 07 27.560776 +01 01 39.22176
 2018-Oct-17 01:18  m  13 07 27.563684 +01 01 39.02784
 2018-Oct-17 01:19  m  13 07 27.566645 +01 01 38.83392
 2018-Oct-17 01:20  m  13 07 27.569661 +01 01 38.64001
 2018-Oct-17 01:21  m  13 07 27.572730 +01 01 38.44610
 2018-Oct-17 01:22  m  13 07 27.575852 +01 01 38.25220
 2018-Oct-17 01:23  m  13 07 27.579027 +01 01 38.05829
 2018-Oct-17 01:24  m  13 07 27.582255 +01 01 37.86440
 2018-Oct-17 01:25  m  13 07 27.585535 +01 01 37.67050
 2018-Oct-17 01:26  m  13 07 27.588868 +01 01 37.47661
 2018-Oct-17 01:27  m  13 07 27.592252 +01 01 37.28273
 2018-Oct-17 01:28  m  13 07 27.595688 +01 01 37.08885
 2018-Oct-17 01:29  m  13 07 27.599176 +01 01 36.89497
 2018-Oct-17 01:30  m  13 07 27.602715 +01 01 36.70110
 2018-Oct-17 01:31  m  13 07 27.606304 +01 01 36.50723
 2018-Oct-17 01:32  m  13 07 27.609945 +01 01 36.31336
 2018-Oct-17 01:33  m  13 07 27.613635 +01 01 36.11950
 2018-Oct-17 01:34  m  13 07 27.617376 +01 01 35.92565
 2018-Oct-17 01:35  m  13 07 27.621166 +01 01 35.73180
 2018-Oct-17 01:36  m  13 07 27.625006 +01 01 35.53795
 2018-Oct-17 01:37  m  13 07 27.628895 +01 01 35.34411
 2018-Oct-17 01:38  m  13 07 27.632834 +01 01 35.15027
 2018-Oct-17 01:39  m  13 07 27.636820 +01 01 34.95644
 2018-Oct-17 01:40  m  13 07 27.640856 +01 01 34.76262
 2018-Oct-17 01:41  m  13 07 27.644939 +01 01 34.56879
 2018-Oct-17 01:42  m  13 07 27.649070 +01 01 34.37498
 2018-Oct-17 01:43  m  13 07 27.653249 +01 01 34.18116
 2018-Oct-17 01:44  m  13 07 27.657475 +01 01 33.98736
 2018-Oct-17 01:45  m  13 07 27.661749 +01 01 33.79356
 2018-Oct-17 01:46  m  13 07 27.666068 +01 01 33.59976
 2018-Oct-17 01:47  m  13 07 27.670435 +01 01 33.40597
 2018-Oct-17 01:48  m  13 07 27.674847 +01 01 33.21218
 2018-Oct-17 01:49  m  13 07 27.679306 +01 01 33.01840
 2018-Oct-17 01:50  m  13 07 27.683810 +01 01 32.82462
 2018-Oct-17 01:51  m  13 07 27.688359 +01 01 32.63085
 2018-Oct-17 01:52  m  13 07 27.692954 +01 01 32.43709
 2018-Oct-17 01:53  m  13 07 27.697593 +01 01 32.24333
 2018-Oct-17 01:54  m  13 07 27.702277 +01 01 32.04957
 2018-Oct-17 01:55  m  13 07 27.707004 +01 01 31.85583
 2018-Oct-17 01:56  m  13 07 27.711776 +01 01 31.66208
 2018-Oct-17 01:57  m  13 07 27.716591 +01 01 31.46834
 2018-Oct-17 01:58  m  13 07 27.721450 +01 01 31.27461
 2018-Oct-17 01:59  m  13 07 27.726352 +01 01 31.08089
 2018-Oct-17 02:00  m  13 07 27.731296 +01 01 30.88717
 2018-Oct-17 02:01  m  13 07 27.736283 +01 01 30.69345
 2018-Oct-17 02:02  m  13 07 27.741311 +01 01 30.49974
 2018-Oct-17 02:03  m  13 07 27.746382 +01 01 30.30604
 2018-Oct-17 02:04  m  13 07 27.751494 +01 01 30.11234
 2018-Oct-17 02:05  m  13 07 27.756648 +01 01 29.91865
 2018-Oct-17 02:06  m  13 07 27.761842 +01 01 29.72497
 2018-Oct-17 02:07  m  13 07 27.767077 +01 01 29.53129
 2018-Oct-17 02:08  m  13 07 27.772352 +01 01 29.33762
 2018-Oct-17 02:09  m  13 07 27.777668 +01 01 29.14395
 2018-Oct-17 02:10  m  13 07 27.783023 +01 01 28.95029
 2018-Oct-17 02:11  m  13 07 27.788418 +01 01 28.75664
 2018-Oct-17 02:12  m  13 07 27.793851 +01 01 28.56299
 2018-Oct-17 02:13  m  13 07 27.799324 +01 01 28.36935
 2018-Oct-17 02:14  m  13 07 27.804835 +01 01 28.17571
 2018-Oct-17 02:15  m  13 07 27.810384 +01 01 27.98208
 2018-Oct-17 02:16  m  13 07 27.815971 +01 01 27.78846
 2018-Oct-17 02:17  m  13 07 27.821596 +01 01 27.59484
 2018-Oct-17 02:18  m  13 07 27.827258 +01 01 27.40123
 2018-Oct-17 02:19  m  13 07 27.832957 +01 01 27.20763
 2018-Oct-17 02:20  m  13 07 27.838693 +01 01 27.01403
 2018-Oct-17 02:21  m  13 07 27.844465 +01 01 26.82044
 2018-Oct-17 02:22  m  13 07 27.850274 +01 01 26.62686
 2018-Oct-17 02:23  m  13 07 27.856118 +01 01 26.43328
 2018-Oct-17 02:24  m  13 07 27.861997 +01 01 26.23971
 2018-Oct-17 02:25  m  13 07 27.867912 +01 01 26.04615
 2018-Oct-17 02:26  m  13 07 27.873861 +01 01 25.85259
 2018-Oct-17 02:27  m  13 07 27.879845 +01 01 25.65904
 2018-Oct-17 02:28  m  13 07 27.885864 +01 01 25.46550
 2018-Oct-17 02:29  m  13 07 27.891916 +01 01 25.27197
 2018-Oct-17 02:30  m  13 07 27.898001 +01 01 25.07844
 2018-Oct-17 02:31  m  13 07 27.904120 +01 01 24.88491
 2018-Oct-17 02:32  m  13 07 27.910272 +01 01 24.69140
 2018-Oct-17 02:33  m  13 07 27.916457 +01 01 24.49789
 2018-Oct-17 02:34  m  13 07 27.922674 +01 01 24.30439
 2018-Oct-17 02:35  m  13 07 27.928922 +01 01 24.11090
 2018-Oct-17 02:36  m  13 07 27.935203 +01 01 23.91741
 2018-Oct-17 02:37  m  13 07 27.941515 +01 01 23.72393
 2018-Oct-17 02:38  m  13 07 27.947858 +01 01 23.53046
 2018-Oct-17 02:39  m  13 07 27.954231 +01 01 23.33699
 2018-Oct-17 02:40  m  13 07 27.960636 +01 01 23.14353
 2018-Oct-17 02:41  m  13 07 27.967070 +01 01 22.95008
 2018-Oct-17 02:42  m  13 07 27.973534 +01 01 22.75664
 2018-Oct-17 02:43  m  13 07 27.980027 +01 01 22.56320
 2018-Oct-17 02:44  m  13 07 27.986549 +01 01 22.36977
 2018-Oct-17 02:45  m  13 07 27.993101 +01 01 22.17635
 2018-Oct-17 02:46  m  13 07 27.999681 +01 01 21.98294
 2018-Oct-17 02:47  m  13 07 28.006288 +01 01 21.78953
 2018-Oct-17 02:48  m  13 07 28.012924 +01 01 21.59613
 2018-Oct-17 02:49  m  13 07 28.019587 +01 01 21.40274
 2018-Oct-17 02:50  m  13 07 28.026278 +01 01 21.20936
 2018-Oct-17 02:51  m  13 07 28.032995 +01 01 21.01598
 2018-Oct-17 02:52  m  13 07 28.039739 +01 01 20.82261
 2018-Oct-17 02:53  m  13 07 28.046509 +01 01 20.62925
 2018-Oct-17 02:54  m  13 07 28.053305 +01 01 20.43590
 2018-Oct-17 02:55  m  13 07 28.060126 +01 01 20.24255
 2018-Oct-17 02:56  m  13 07 28.066973 +01 01 20.04921
 2018-Oct-17 02:57  m  13 07 28.073844 +01 01 19.85588
 2018-Oct-17 02:58  m  13 07 28.080740 +01 01 19.66256
 2018-Oct-17 02:59  m  13 07 28.087661 +01 01 19.46924
 2018-Oct-17 03:00  m  13 07 28.094605 +01 01 19.27594
 2018-Oct-17 03:01  m  13 07 28.101573 +01 01 19.08264
 2018-Oct-17 03:02  m  13 07 28.108564 +01 01 18.88934
 2018-Oct-17 03:03  m  13 07 28.115578 +01 01 18.69606
 2018-Oct-17 03:04  m  13 07 28.122614 +01 01 18.50278
 2018-Oct-17 03:05  m  13 07 28.129673 +01 01 18.30951
 2018-Oct-17 03:06  m  13 07 28.136754 +01 01 18.11625
 2018-Oct-17 03:07  m  13 07 28.143856 +01 01 17.92300
